[{"OBJECT_NAME":"GAOFEN-9 05","OBJECT_ID":"2020-058A","EPOCH":"2026-03-10T00:01:50.876256","MEAN_MOTION":15.30293976,"ECCENTRICITY":0.0010522,"INCLINATION":97.2228,"RA_OF_ASC_NODE":111.963,"ARG_OF_PERICENTER":91.0204,"MEAN_ANOMALY":269.2242,"EPHEMERIS_TYPE":0,"CLASSIFICATION_TYPE":"U","NORAD_CAT_ID":46232,"ELEMENT_SET_NO":999,"REV_AT_EPOCH":30843,"BSTAR":0.00025120304,"MEAN_MOTION_DOT":7.299e-5,"MEAN_MOTION_DDOT":0},{"OBJECT_NAME":"STARLINK-31881","OBJECT_ID":"2024-084F","EPOCH":"2026-03-09T06:32:49.494048","MEAN_MOTION":15.27592544,"ECCENTRICITY":9.972e-5,"INCLINATION":43.0039,"RA_OF_ASC_NODE":40.3268,"ARG_OF_PERICENTER":277.3177,"MEAN_ANOMALY":82.7561,"EPHEMERIS_TYPE":0,"CLASSIFICATION_TYPE":"U","NORAD_CAT_ID":59659,"ELEMENT_SET_NO":999,"REV_AT_EPOCH":10435,"BSTAR":-5.3394297e-5,"MEAN_MOTION_DOT":-1.732e-5,"MEAN_MOTION_DDOT":0}]
